CCSDS_OMM_VERS = 2.0
CREATION_DATE  = 
ORIGINATOR     = 

OBJECT_NAME    = UNKNOWN
OBJECT_ID      = 
CENTER_NAME    = EARTH
REF_FRAME      = TEME
TIME_SYSTEM    = UTC
MEAN_ELEMENT_THEORY = SGP/SGP4

EPOCH          = 2026-02-24T19:59:30.337728
MEAN_MOTION    = 12.21567666
ECCENTRICITY   = .01376147
INCLINATION    = 74.0010
RA_OF_ASC_NODE = 108.4010
ARG_OF_PERICENTER = 218.7721
MEAN_ANOMALY   = 140.3376

EPHEMERIS_TYPE = 0
CLASSIFICATION_TYPE = U
NORAD_CAT_ID   = 270158
ELEMENT_SET_NO = 999
REV_AT_EPOCH   = 27872
BSTAR          = .13219068E-3
MEAN_MOTION_DOT = -.1E-7
MEAN_MOTION_DDOT = 0

CCSDS_OMM_VERS = 2.0
CREATION_DATE  = 
ORIGINATOR     = 

OBJECT_NAME    = UNKNOWN
OBJECT_ID      = 
CENTER_NAME    = EARTH
REF_FRAME      = TEME
TIME_SYSTEM    = UTC
MEAN_ELEMENT_THEORY = SGP/SGP4

EPOCH          = 2026-03-05T04:29:22.985376
MEAN_MOTION    = 12.81677833
ECCENTRICITY   = .02746819
INCLINATION    = 62.9623
RA_OF_ASC_NODE = 24.0074
ARG_OF_PERICENTER = 226.3296
MEAN_ANOMALY   = 131.4631

EPHEMERIS_TYPE = 0
CLASSIFICATION_TYPE = U
NORAD_CAT_ID   = 270159
ELEMENT_SET_NO = 999
REV_AT_EPOCH   = 29337
BSTAR          = -.48607077E-3
MEAN_MOTION_DOT = -.211E-5
MEAN_MOTION_DDOT = 0

CCSDS_OMM_VERS = 2.0
CREATION_DATE  = 
ORIGINATOR     = 

OBJECT_NAME    = UNKNOWN
OBJECT_ID      = 
CENTER_NAME    = EARTH
REF_FRAME      = TEME
TIME_SYSTEM    = UTC
MEAN_ELEMENT_THEORY = SGP/SGP4

EPOCH          = 2026-02-26T11:41:41.278848
MEAN_MOTION    = 12.15969695
ECCENTRICITY   = .08741314
INCLINATION    = 83.2678
RA_OF_ASC_NODE = 340.4053
ARG_OF_PERICENTER = 105.8462
MEAN_ANOMALY   = 264.0646

EPHEMERIS_TYPE = 0
CLASSIFICATION_TYPE = U
NORAD_CAT_ID   = 270160
ELEMENT_SET_NO = 999
REV_AT_EPOCH   = 27623
BSTAR          = .92230044E-2
MEAN_MOTION_DOT = .3044E-4
MEAN_MOTION_DDOT = 0

CCSDS_OMM_VERS = 2.0
CREATION_DATE  = 
ORIGINATOR     = 

OBJECT_NAME    = UNKNOWN
OBJECT_ID      = 
CENTER_NAME    = EARTH
REF_FRAME      = TEME
TIME_SYSTEM    = UTC
MEAN_ELEMENT_THEORY = SGP/SGP4

EPOCH          = 2026-03-01T18:18:42.293664
MEAN_MOTION    = 12.76601017
ECCENTRICITY   = .00538835
INCLINATION    = 101.1088
RA_OF_ASC_NODE = 46.6903
ARG_OF_PERICENTER = 101.4194
MEAN_ANOMALY   = 259.2953

EPHEMERIS_TYPE = 0
CLASSIFICATION_TYPE = U
NORAD_CAT_ID   = 270161
ELEMENT_SET_NO = 999
REV_AT_EPOCH   = 29126
BSTAR          = .18303926E-2
MEAN_MOTION_DOT = .356E-5
MEAN_MOTION_DDOT = 0

CCSDS_OMM_VERS = 2.0
CREATION_DATE  = 
ORIGINATOR     = 

OBJECT_NAME    = UNKNOWN
OBJECT_ID      = 
CENTER_NAME    = EARTH
REF_FRAME      = TEME
TIME_SYSTEM    = UTC
MEAN_ELEMENT_THEORY = SGP/SGP4

EPOCH          = 2026-02-04T03:43:02.942688
MEAN_MOTION    = 12.64542644
ECCENTRICITY   = .09256333
INCLINATION    = 28.8478
RA_OF_ASC_NODE = 352.8808
ARG_OF_PERICENTER = 287.8893
MEAN_ANOMALY   = 62.2913

EPHEMERIS_TYPE = 0
CLASSIFICATION_TYPE = U
NORAD_CAT_ID   = 270162
ELEMENT_SET_NO = 999
REV_AT_EPOCH   = 28501
BSTAR          = .70926834E-3
MEAN_MOTION_DOT = .815E-5
MEAN_MOTION_DDOT = 0

CCSDS_OMM_VERS = 2.0
CREATION_DATE  = 
ORIGINATOR     = 

OBJECT_NAME    = UNKNOWN
OBJECT_ID      = 
CENTER_NAME    = EARTH
REF_FRAME      = TEME
TIME_SYSTEM    = UTC
MEAN_ELEMENT_THEORY = SGP/SGP4

EPOCH          = 2026-03-02T14:40:56.540064
MEAN_MOTION    = 13.00016871
ECCENTRICITY   = .00248703
INCLINATION    = 90.2473
RA_OF_ASC_NODE = 8.8725
ARG_OF_PERICENTER = 187.1938
MEAN_ANOMALY   = 172.8831

EPHEMERIS_TYPE = 0
CLASSIFICATION_TYPE = U
NORAD_CAT_ID   = 270164
ELEMENT_SET_NO = 999
REV_AT_EPOCH   = 29613
BSTAR          = .30879597E-2
MEAN_MOTION_DOT = .938E-5
MEAN_MOTION_DDOT = 0

CCSDS_OMM_VERS = 2.0
CREATION_DATE  = 
ORIGINATOR     = 

OBJECT_NAME    = UNKNOWN
OBJECT_ID      = 
CENTER_NAME    = EARTH
REF_FRAME      = TEME
TIME_SYSTEM    = UTC
MEAN_ELEMENT_THEORY = SGP/SGP4

EPOCH          = 2026-02-04T05:08:41.686368
MEAN_MOTION    = 12.95696277
ECCENTRICITY   = .00421421
INCLINATION    = 90.2420
RA_OF_ASC_NODE = 9.2357
ARG_OF_PERICENTER = 184.1265
MEAN_ANOMALY   = 175.9514

EPHEMERIS_TYPE = 0
CLASSIFICATION_TYPE = U
NORAD_CAT_ID   = 270165
ELEMENT_SET_NO = 999
REV_AT_EPOCH   = 29124
BSTAR          = .14032366E-2
MEAN_MOTION_DOT = .406E-5
MEAN_MOTION_DDOT = 0

CCSDS_OMM_VERS = 2.0
CREATION_DATE  = 
ORIGINATOR     = 

OBJECT_NAME    = UNKNOWN
OBJECT_ID      = 
CENTER_NAME    = EARTH
REF_FRAME      = TEME
TIME_SYSTEM    = UTC
MEAN_ELEMENT_THEORY = SGP/SGP4

EPOCH          = 2026-02-26T11:56:22.259040
MEAN_MOTION    = 11.48026764
ECCENTRICITY   = .06982932
INCLINATION    = 65.7383
RA_OF_ASC_NODE = 351.8824
ARG_OF_PERICENTER = 170.9615
MEAN_ANOMALY   = 190.4693

EPHEMERIS_TYPE = 0
CLASSIFICATION_TYPE = U
NORAD_CAT_ID   = 270167
ELEMENT_SET_NO = 999
REV_AT_EPOCH   = 26179
BSTAR          = -.50455715E-4
MEAN_MOTION_DOT = -.46E-6
MEAN_MOTION_DDOT = 0

CCSDS_OMM_VERS = 2.0
CREATION_DATE  = 
ORIGINATOR     = 

OBJECT_NAME    = UNKNOWN
OBJECT_ID      = 
CENTER_NAME    = EARTH
REF_FRAME      = TEME
TIME_SYSTEM    = UTC
MEAN_ELEMENT_THEORY = SGP/SGP4

EPOCH          = 2026-03-05T07:19:28.860960
MEAN_MOTION    = 13.43015012
ECCENTRICITY   = .02057155
INCLINATION    = 82.9996
RA_OF_ASC_NODE = 86.1505
ARG_OF_PERICENTER = 334.7327
MEAN_ANOMALY   = 24.3856

EPHEMERIS_TYPE = 0
CLASSIFICATION_TYPE = U
NORAD_CAT_ID   = 270169
ELEMENT_SET_NO = 999
REV_AT_EPOCH   = 30718
BSTAR          = .14974451E-2
MEAN_MOTION_DOT = .98E-5
MEAN_MOTION_DDOT = 0

CCSDS_OMM_VERS = 2.0
CREATION_DATE  = 
ORIGINATOR     = 

OBJECT_NAME    = UNKNOWN
OBJECT_ID      = 
CENTER_NAME    = EARTH
REF_FRAME      = TEME
TIME_SYSTEM    = UTC
MEAN_ELEMENT_THEORY = SGP/SGP4

EPOCH          = 2026-02-05T05:01:11.889696
MEAN_MOTION    = 14.45696735
ECCENTRICITY   = .00240504
INCLINATION    = 86.3745
RA_OF_ASC_NODE = 18.2886
ARG_OF_PERICENTER = 340.5804
MEAN_ANOMALY   = 19.4479

EPHEMERIS_TYPE = 0
CLASSIFICATION_TYPE = U
NORAD_CAT_ID   = 270172
ELEMENT_SET_NO = 999
REV_AT_EPOCH   = 32522
BSTAR          = .83681231E-3
MEAN_MOTION_DOT = .299E-4
MEAN_MOTION_DDOT = 0

CCSDS_OMM_VERS = 2.0
CREATION_DATE  = 
ORIGINATOR     = 

OBJECT_NAME    = UNKNOWN
OBJECT_ID      = 
CENTER_NAME    = EARTH
REF_FRAME      = TEME
TIME_SYSTEM    = UTC
MEAN_ELEMENT_THEORY = SGP/SGP4

EPOCH          = 2026-03-01T09:36:21.311424
MEAN_MOTION    = 14.85658267
ECCENTRICITY   = .00034229
INCLINATION    = 86.6043
RA_OF_ASC_NODE = 32.3654
ARG_OF_PERICENTER = 96.8859
MEAN_ANOMALY   = 263.2755

EPHEMERIS_TYPE = 0
CLASSIFICATION_TYPE = U
NORAD_CAT_ID   = 270173
ELEMENT_SET_NO = 999
REV_AT_EPOCH   = 33573
BSTAR          = .58201261E-3
MEAN_MOTION_DOT = .5068E-4
MEAN_MOTION_DDOT = 0

CCSDS_OMM_VERS = 2.0
CREATION_DATE  = 
ORIGINATOR     = 

OBJECT_NAME    = UNKNOWN
OBJECT_ID      = 
CENTER_NAME    = EARTH
REF_FRAME      = TEME
TIME_SYSTEM    = UTC
MEAN_ELEMENT_THEORY = SGP/SGP4

EPOCH          = 2026-03-01T22:34:00.212736
MEAN_MOTION    = 11.49748393
ECCENTRICITY   = .09526609
INCLINATION    = 63.3943
RA_OF_ASC_NODE = 309.3844
ARG_OF_PERICENTER = 317.9587
MEAN_ANOMALY   = 35.1885

EPHEMERIS_TYPE = 0
CLASSIFICATION_TYPE = U
NORAD_CAT_ID   = 270174
ELEMENT_SET_NO = 999
REV_AT_EPOCH   = 26305
BSTAR          = -.59375719E-3
MEAN_MOTION_DOT = -.13E-5
MEAN_MOTION_DDOT = 0

CCSDS_OMM_VERS = 2.0
CREATION_DATE  = 
ORIGINATOR     = 

OBJECT_NAME    = UNKNOWN
OBJECT_ID      = 
CENTER_NAME    = EARTH
REF_FRAME      = TEME
TIME_SYSTEM    = UTC
MEAN_ELEMENT_THEORY = SGP/SGP4

EPOCH          = 2026-03-02T01:11:11.069952
MEAN_MOTION    = 13.04495247
ECCENTRICITY   = .00305057
INCLINATION    = 90.2299
RA_OF_ASC_NODE = 354.6364
ARG_OF_PERICENTER = 126.8857
MEAN_ANOMALY   = 233.5070

EPHEMERIS_TYPE = 0
CLASSIFICATION_TYPE = U
NORAD_CAT_ID   = 270176
ELEMENT_SET_NO = 999
REV_AT_EPOCH   = 29681
BSTAR          = .18302714E-2
MEAN_MOTION_DOT = .596E-5
MEAN_MOTION_DDOT = 0

CCSDS_OMM_VERS = 2.0
CREATION_DATE  = 
ORIGINATOR     = 

OBJECT_NAME    = UNKNOWN
OBJECT_ID      = 
CENTER_NAME    = EARTH
REF_FRAME      = TEME
TIME_SYSTEM    = UTC
MEAN_ELEMENT_THEORY = SGP/SGP4

EPOCH          = 2026-02-04T05:51:13.403232
MEAN_MOTION    = 14.32160460
ECCENTRICITY   = .0019625
INCLINATION    = 98.6894
RA_OF_ASC_NODE = 38.7003
ARG_OF_PERICENTER = 182.8690
MEAN_ANOMALY   = 177.2384

EPHEMERIS_TYPE = 0
CLASSIFICATION_TYPE = U
NORAD_CAT_ID   = 270178
ELEMENT_SET_NO = 999
REV_AT_EPOCH   = 32209
BSTAR          = .17100266E-3
MEAN_MOTION_DOT = .416E-5
MEAN_MOTION_DDOT = 0

CCSDS_OMM_VERS = 2.0
CREATION_DATE  = 
ORIGINATOR     = 

OBJECT_NAME    = UNKNOWN
OBJECT_ID      = 
CENTER_NAME    = EARTH
REF_FRAME      = TEME
TIME_SYSTEM    = UTC
MEAN_ELEMENT_THEORY = SGP/SGP4

EPOCH          = 2026-02-25T17:21:26.106048
MEAN_MOTION    = 14.38507778
ECCENTRICITY   = .0032712
INCLINATION    = 98.6257
RA_OF_ASC_NODE = 62.5817
ARG_OF_PERICENTER = 143.2366
MEAN_ANOMALY   = 217.1074

EPHEMERIS_TYPE = 0
CLASSIFICATION_TYPE = U
NORAD_CAT_ID   = 270179
ELEMENT_SET_NO = 999
REV_AT_EPOCH   = 32638
BSTAR          = .14614257E-3
MEAN_MOTION_DOT = .405E-5
MEAN_MOTION_DDOT = 0

CCSDS_OMM_VERS = 2.0
CREATION_DATE  = 
ORIGINATOR     = 

OBJECT_NAME    = UNKNOWN
OBJECT_ID      = 
CENTER_NAME    = EARTH
REF_FRAME      = TEME
TIME_SYSTEM    = UTC
MEAN_ELEMENT_THEORY = SGP/SGP4

EPOCH          = 2026-02-28T11:01:44.273280
MEAN_MOTION    = 12.92575059
ECCENTRICITY   = .06927877
INCLINATION    = 72.9891
RA_OF_ASC_NODE = 323.2260
ARG_OF_PERICENTER = 252.3339
MEAN_ANOMALY   = 100.0972

EPHEMERIS_TYPE = 0
CLASSIFICATION_TYPE = U
NORAD_CAT_ID   = 270181
ELEMENT_SET_NO = 999
REV_AT_EPOCH   = 29386
BSTAR          = -.15416991E-3
MEAN_MOTION_DOT = -.152E-5
MEAN_MOTION_DDOT = 0

